{
  "type": "FeatureCollection",
  "features": [
    {
      "type": "Feature",
      "properties": {
        "norad_id": 29894,
        "name": "FENGYUN 1C DEB",
        "group": "fengyun-1c-debris",
        "lat": -29.28006496881589,
        "lon": -142.8195919160557,
        "alt_km": 1087.2892294271314,
        "timestamp": "2025-12-14T05:42:18.732054+00:00",
        "meta_object_name": "FENGYUN 1C DEB",
        "meta_object_id": "1999-025GQ",
        "meta_epoch": "2025-12-13T15:31:10.750080",
        "meta_mean_motion": 13.80973788,
        "meta_eccentricity": 0.01684428,
        "meta_inclination": 99.4857,
        "meta_ra_of_asc_node": 41.966,
        "meta_arg_of_pericenter": 42.662,
        "meta_mean_anomaly": 109.6481,
        "meta_ephemeris_type": 0,
        "meta_classification_type": "U",
        "meta_norad_cat_id": 29894,
        "meta_element_set_no": 999,
        "meta_rev_at_epoch": 95089,
        "meta_bstar": 0.00066026426,
        "meta_mean_motion_dot": 7.31e-06,
        "meta_mean_motion_ddot": 0,
        "tle_line1": "1 29894U 99025GQ  25347.64665220  .00000731  00000+0  66026-3 0  9992",
        "tle_line2": "2 29894  99.4857  41.9660 0168442  42.6620 109.6481 13.80973788950891"
      },
      "geometry": {
        "type": "Point",
        "coordinates": [
          -142.8195919160557,
          -29.28006496881589
        ]
      }
    },
    {
      "type": "Feature",
      "properties": {
        "norad_id": 29895,
        "name": "FENGYUN 1C DEB",
        "group": "fengyun-1c-debris",
        "lat": 76.40217641287116,
        "lon": -37.104158278163915,
        "alt_km": 960.6701161397259,
        "timestamp": "2025-12-14T05:42:18.732065+00:00",
        "meta_object_name": "FENGYUN 1C DEB",
        "meta_object_id": "1999-025GR",
        "meta_epoch": "2025-12-13T05:38:37.901760",
        "meta_mean_motion": 14.08244016,
        "meta_eccentricity": 0.02993742,
        "meta_inclination": 99.8842,
        "meta_ra_of_asc_node": 95.6754,
        "meta_arg_of_pericenter": 342.3496,
        "meta_mean_anomaly": 74.067,
        "meta_ephemeris_type": 0,
        "meta_classification_type": "U",
        "meta_norad_cat_id": 29895,
        "meta_element_set_no": 999,
        "meta_rev_at_epoch": 95531,
        "meta_bstar": 0.003321772,
        "meta_mean_motion_dot": 8.52e-05,
        "meta_mean_motion_ddot": 0,
        "tle_line1": "1 29895U 99025GR  25347.23516090  .00008520  00000+0  33218-2 0  9998",
        "tle_line2": "2 29895  99.8842  95.6754 0299374 342.3496  74.0670 14.08244016955313"
      },
      "geometry": {
        "type": "Point",
        "coordinates": [
          -37.104158278163915,
          76.40217641287116
        ]
      }
    },
    {
      "type": "Feature",
      "properties": {
        "norad_id": 29896,
        "name": "FENGYUN 1C DEB",
        "group": "fengyun-1c-debris",
        "lat": -66.03729175976764,
        "lon": -98.13734621941694,
        "alt_km": 1195.1049266212658,
        "timestamp": "2025-12-14T05:42:18.732075+00:00",
        "meta_object_name": "FENGYUN 1C DEB",
        "meta_object_id": "1999-025GS",
        "meta_epoch": "2025-12-13T16:17:05.322912",
        "meta_mean_motion": 13.65368417,
        "meta_eccentricity": 0.02397245,
        "meta_inclination": 99.4221,
        "meta_ra_of_asc_node": 239.3814,
        "meta_arg_of_pericenter": 99.506,
        "meta_mean_anomaly": 326.2254,
        "meta_ephemeris_type": 0,
        "meta_classification_type": "U",
        "meta_norad_cat_id": 29896,
        "meta_element_set_no": 999,
        "meta_rev_at_epoch": 94055,
        "meta_bstar": 0.00077182278,
        "meta_mean_motion_dot": 7.23e-06,
        "meta_mean_motion_ddot": 0,
        "tle_line1": "1 29896U 99025GS  25347.67853383  .00000723  00000+0  77182-3 0  9992",
        "tle_line2": "2 29896  99.4221 239.3814 0239724  99.5060 326.2254 13.65368417940550"
      },
      "geometry": {
        "type": "Point",
        "coordinates": [
          -98.13734621941694,
          -66.03729175976764
        ]
      }
    },
    {
      "type": "Feature",
      "properties": {
        "norad_id": 29897,
        "name": "FENGYUN 1C DEB",
        "group": "fengyun-1c-debris",
        "lat": 9.459369809691548,
        "lon": 33.77677582936277,
        "alt_km": 865.988674322809,
        "timestamp": "2025-12-14T05:42:18.732086+00:00",
        "meta_object_name": "FENGYUN 1C DEB",
        "meta_object_id": "1999-025GT",
        "meta_epoch": "2025-12-12T21:09:07.860672",
        "meta_mean_motion": 13.57182709,
        "meta_eccentricity": 0.02964947,
        "meta_inclination": 98.6294,
        "meta_ra_of_asc_node": 211.1348,
        "meta_arg_of_pericenter": 138.3844,
        "meta_mean_anomaly": 246.4529,
        "meta_ephemeris_type": 0,
        "meta_classification_type": "U",
        "meta_norad_cat_id": 29897,
        "meta_element_set_no": 999,
        "meta_rev_at_epoch": 92942,
        "meta_bstar": 0.0025913947,
        "meta_mean_motion_dot": 2.423e-05,
        "meta_mean_motion_ddot": 0,
        "tle_line1": "1 29897U 99025GT  25346.88134098  .00002423  00000+0  25914-2 0  9994",
        "tle_line2": "2 29897  98.6294 211.1348 0296494 138.3844 246.4529 13.57182709929421"
      },
      "geometry": {
        "type": "Point",
        "coordinates": [
          33.77677582936277,
          9.459369809691548
        ]
      }
    },
    {
      "type": "Feature",
      "properties": {
        "norad_id": 29898,
        "name": "FENGYUN 1C DEB",
        "group": "fengyun-1c-debris",
        "lat": -69.35487730856825,
        "lon": 2.945204344511912,
        "alt_km": 1067.9159624326703,
        "timestamp": "2025-12-14T05:42:18.732097+00:00",
        "meta_object_name": "FENGYUN 1C DEB",
        "meta_object_id": "1999-025GU",
        "meta_epoch": "2025-12-13T11:26:39.467616",
        "meta_mean_motion": 13.70317531,
        "meta_eccentricity": 0.04271498,
        "meta_inclination": 98.2234,
        "meta_ra_of_asc_node": 339.7225,
        "meta_arg_of_pericenter": 187.3095,
        "meta_mean_anomaly": 305.4996,
        "meta_ephemeris_type": 0,
        "meta_classification_type": "U",
        "meta_norad_cat_id": 29898,
        "meta_element_set_no": 999,
        "meta_rev_at_epoch": 93171,
        "meta_bstar": 0.0027023534,
        "meta_mean_motion_dot": 4.523e-05,
        "meta_mean_motion_ddot": 0,
        "tle_line1": "1 29898U 99025GU  25347.47684569  .00004523  00000+0  27024-2 0  9991",
        "tle_line2": "2 29898  98.2234 339.7225 0427149 187.3095 305.4996 13.70317531931715"
      },
      "geometry": {
        "type": "Point",
        "coordinates": [
          2.945204344511912,
          -69.35487730856825
        ]
      }
    },
    {
      "type": "Feature",
      "properties": {
        "norad_id": 29899,
        "name": "FENGYUN 1C DEB",
        "group": "fengyun-1c-debris",
        "lat": 23.150178792620306,
        "lon": -32.73241961530268,
        "alt_km": 1068.599694004236,
        "timestamp": "2025-12-14T05:42:18.732107+00:00",
        "meta_object_name": "FENGYUN 1C DEB",
        "meta_object_id": "1999-025GV",
        "meta_epoch": "2025-12-12T22:26:39.322176",
        "meta_mean_motion": 13.37492488,
        "meta_eccentricity": 0.03535928,
        "meta_inclination": 98.6617,
        "meta_ra_of_asc_node": 142.4193,
        "meta_arg_of_pericenter": 78.4908,
        "meta_mean_anomaly": 285.5699,
        "meta_ephemeris_type": 0,
        "meta_classification_type": "U",
        "meta_norad_cat_id": 29899,
        "meta_element_set_no": 999,
        "meta_rev_at_epoch": 92087,
        "meta_bstar": 0.00027482953,
        "meta_mean_motion_dot": 1.74e-06,
        "meta_mean_motion_ddot": 0,
        "tle_line1": "1 29899U 99025GV  25346.93517734  .00000174  00000+0  27483-3 0  9999",
        "tle_line2": "2 29899  98.6617 142.4193 0353592  78.4908 285.5699 13.37492488920872"
      },
      "geometry": {
        "type": "Point",
        "coordinates": [
          -32.73241961530268,
          23.150178792620306
        ]
      }
    },
    {
      "type": "Feature",
      "properties": {
        "norad_id": 29901,
        "name": "FENGYUN 1C DEB",
        "group": "fengyun-1c-debris",
        "lat": -37.507960783012116,
        "lon": 165.63210115080705,
        "alt_km": 919.6889697606848,
        "timestamp": "2025-12-14T05:42:18.732117+00:00",
        "meta_object_name": "FENGYUN 1C DEB",
        "meta_object_id": "1999-025GX",
        "meta_epoch": "2025-12-13T10:21:19.076256",
        "meta_mean_motion": 13.33254358,
        "meta_eccentricity": 0.03791529,
        "meta_inclination": 98.7443,
        "meta_ra_of_asc_node": 158.1584,
        "meta_arg_of_pericenter": 283.5866,
        "meta_mean_anomaly": 127.9765,
        "meta_ephemeris_type": 0,
        "meta_classification_type": "U",
        "meta_norad_cat_id": 29901,
        "meta_element_set_no": 999,
        "meta_rev_at_epoch": 91928,
        "meta_bstar": 0.00060659317,
        "meta_mean_motion_dot": 4.08e-06,
        "meta_mean_motion_ddot": 0,
        "tle_line1": "1 29901U 99025GX  25347.43147079  .00000408  00000+0  60659-3 0  9992",
        "tle_line2": "2 29901  98.7443 158.1584 0379152 283.5866 127.9765 13.33254358919288"
      },
      "geometry": {
        "type": "Point",
        "coordinates": [
          165.63210115080705,
          -37.507960783012116
        ]
      }
    }
  ]
}